     3.02           N: GNSS NAV DATA    J: QZSS             RINEX VERSION / TYPE
BINEX2RINEX  2.03   GSI, JAPAN          20200319 21:17:05UTCPGM / RUN BY / DATE
                                                            END OF HEADER
J07 2020 03 18 13 00 00 2.793967723846D-08 0.000000000000D+00 0.000000000000D+00
     1.130000000000D+02 3.555000000000D+02 0.000000000000D+00 1.950240399318D+00
     1.169554889202D-05 2.575039397925D-04-3.637745976448D-06 6.493453754425D+03
     3.060000000000D+05 8.028000593185D-07 3.467337670132D-01-3.758817911148D-06
     1.169645428998D-03 1.066562500000D+02-2.898356898439D+00 9.903983969257D-10
     0.000000000000D+00 2.000000000000D+00 2.097000000000D+03 0.000000000000D+00
     2.800000000000D+00 0.000000000000D+00-6.053596735001D-09 8.810000000000D+02
     3.024060000000D+05 0.000000000000D+00
J03 2020 03 18 13 00 00-1.214444637299D-06-2.273736754432D-13 0.000000000000D+00
     1.130000000000D+02 4.386562500000D+02 5.589518540169D-10-2.304092273663D+00
     1.367367804050D-05 7.445674051996D-02-6.195157766342D-06 6.493257658005D+03
     3.060000000000D+05-3.613531589508D-06-2.796349453808D+00-2.212822437286D-06
     7.124681759022D-01 3.745937500000D+02-1.569741694522D+00-6.625275969337D-10
     1.508277111510D-09 2.000000000000D+00 2.097000000000D+03 0.000000000000D+00
     2.800000000000D+00 0.000000000000D+00 4.656612873077D-10 8.810000000000D+02
     3.024060000000D+05 0.000000000000D+00
J02 2020 03 18 13 00 00-1.907814294100D-06-2.273736754432D-13 0.000000000000D+00
     1.130000000000D+02-1.028125000000D+01 2.212235005611D-09-5.951840117345D-01
    -5.848705768585D-07 7.473846175708D-02 9.603798389435D-06 6.493564018250D+03
     3.060000000000D+05-1.011416316032D-06 1.792698177898D+00 6.258487701416D-07
     7.523543213431D-01-1.066875000000D+02-1.568015484836D+00-2.673325640458D-09
    -9.068234871239D-10 2.000000000000D+00 2.097000000000D+03 0.000000000000D+00
     2.800000000000D+00 0.000000000000D+00 9.313225746155D-10 8.810000000000D+02
     3.024060000000D+05 0.000000000000D+00
J01 2020 03 18 13 00 00-3.427718766034D-04 8.640199666843D-12 0.000000000000D+00
     1.130000000000D+02-3.142812500000D+02 2.295809915412D-09 1.599582689565D+00
    -9.495764970779D-06 7.482466613874D-02 1.729466021061D-05 6.492833196640D+03
     3.060000000000D+05-4.433095455170D-07-4.899101138770D-01-1.206994056702D-06
     7.256551827939D-01-3.456250000000D+02-1.572636301769D+00-2.686897634357D-09
     5.214502919263D-10 2.000000000000D+00 2.097000000000D+03 0.000000000000D+00
     2.800000000000D+00 0.000000000000D+00-5.122274160385D-09 8.810000000000D+02
     3.024060000000D+05 0.000000000000D+00
J07 2020 03 18 14 00 00 2.700835466385D-08 0.000000000000D+00 0.000000000000D+00
     1.170000000000D+02 4.012187500000D+02 0.000000000000D+00 2.227187033040D+00
     1.312606036663D-05 2.596401609480D-04-3.676861524582D-06 6.493443288803D+03
     3.096000000000D+05 2.820044755936D-06 3.450674769883D-01-2.101063728333D-06
     1.173263225408D-03 1.080000000000D+02-2.911123946900D+00 1.058258366423D-09
     0.000000000000D+00 2.000000000000D+00 2.097000000000D+03 0.000000000000D+00
     2.800000000000D+00 0.000000000000D+00-6.053596735001D-09 8.850000000000D+02
     3.060060000000D+05 0.000000000000D+00
J03 2020 03 18 14 00 00-1.217238605022D-06-3.410605131648D-13 0.000000000000D+00
     1.170000000000D+02 4.188437500000D+02-4.643050544549D-12-2.041546719621D+00
     1.360289752483D-05 7.445625762921D-02-5.891546607018D-06 6.493259298325D+03
     3.096000000000D+05-1.214444637299D-06-2.796355532232D+00-4.379078745842D-06
     7.124742616414D-01 3.715625000000D+02-1.569749347047D+00-7.928901699153D-11
     1.271481533738D-09 2.000000000000D+00 2.097000000000D+03 0.000000000000D+00
     2.800000000000D+00 0.000000000000D+00 4.656612873077D-10 8.850000000000D+02
     3.060060000000D+05 0.000000000000D+00
J02 2020 03 18 14 00 00-1.909211277962D-06-2.273736754432D-13 0.000000000000D+00
     1.170000000000D+02-5.581250000000D+01 2.559392323249D-09-3.327182013572D-01
    -1.857057213783D-06 7.473355252296D-02 9.106472134590D-06 6.493548122406D+03
     3.096000000000D+05-4.321336746216D-07 1.792683390722D+00 1.639127731323D-07
     7.523503700013D-01-8.793750000000D+01-1.567972587689D+00-3.005125175526D-09
    -6.425267638188D-10 2.000000000000D+00 2.097000000000D+03 0.000000000000D+00
     2.800000000000D+00 0.000000000000D+00 9.313225746155D-10 8.850000000000D+02
     3.060060000000D+05 0.000000000000D+00
J01 2020 03 18 14 00 00-3.427420742810D-04 8.640199666843D-12 0.000000000000D+00
     1.170000000000D+02-4.068125000000D+02 2.790473377274D-09 1.862327166819D+00
    -1.170672476292D-05 7.482840050943D-02 1.963227987289D-05 6.492805400848D+03
     3.096000000000D+05 1.154839992523D-07-4.899211954814D-01-2.149492502213D-06
     7.256553568812D-01-4.411250000000D+02-1.572786094340D+00-2.918335846116D-09
     7.032435786321D-10 2.000000000000D+00 2.097000000000D+03 0.000000000000D+00
     2.800000000000D+00 0.000000000000D+00-5.122274160385D-09 8.850000000000D+02
     3.060060000000D+05 0.000000000000D+00
J07 2020 03 18 15 00 00 2.561137080193D-08 0.000000000000D+00 0.000000000000D+00
     1.210000000000D+02 4.644062500000D+02 0.000000000000D+00 2.507490986219D+00
     1.493655145168D-05 2.638621954247D-04-2.969056367874D-06 6.493428041458D+03
     3.132000000000D+05 3.034248948097D-06 3.445411380814D-01 1.434236764908D-07
     1.176184672813D-03 8.478125000000D+01-2.928385796531D+00 1.179334838315D-09
     0.000000000000D+00 2.000000000000D+00 2.097000000000D+03 0.000000000000D+00
     2.800000000000D+00 0.000000000000D+00-6.053596735001D-09 8.890000000000D+02
     3.096060000000D+05 0.000000000000D+00
J03 2020 03 18 15 00 00-1.219101250172D-06-3.410605131648D-13 0.000000000000D+00
     1.210000000000D+02 4.150000000000D+02 3.325138505366D-10-1.779002153049D+00
     1.393444836140D-05 7.445572852157D-02-6.048008799553D-06 6.493261894226D+03
     3.132000000000D+05 1.665204763412D-06-2.796352960422D+00-2.697110176086D-06
     7.124725968406D-01 3.803125000000D+02-1.569764365364D+00-6.043108862598D-10
     6.664563320099D-10 2.000000000000D+00 2.097000000000D+03 0.000000000000D+00
     2.800000000000D+00 0.000000000000D+00 4.656612873077D-10 8.890000000000D+02
     3.096060000000D+05 0.000000000000D+00
J01 2020 03 18 15 00 00-3.427113406360D-04 8.640199666843D-12 0.000000000000D+00
     1.210000000000D+02-5.102812500000D+02 2.975838241322D-09 2.125034935069D+00
    -1.416169106960D-05 7.483361312188D-02 2.069398760796D-05 6.492783283234D+03
     3.132000000000D+05 1.484528183937D-06-4.899310731043D-01-2.063810825348D-06
     7.256580237808D-01-4.800625000000D+02-1.572895927303D+00-2.831189358972D-09
     8.807509725275D-10 2.000000000000D+00 2.097000000000D+03 0.000000000000D+00
     2.800000000000D+00 0.000000000000D+00-5.122274160385D-09 8.890000000000D+02
     3.096060000000D+05 0.000000000000D+00
J07 2020 03 18 16 00 00 2.561137080193D-08 0.000000000000D+00 0.000000000000D+00
     1.250000000000D+02 4.317187500000D+02 0.000000000000D+00 2.761243426838D+00
     1.425854861736D-05 2.612060634419D-04-3.350898623466D-06 6.493436416626D+03
     3.168000000000D+05 1.907348632812D-06 3.444854199205D-01 1.518055796623D-06
     1.178121576350D-03 1.071250000000D+02-2.919567986125D+00 1.060044155094D-09
     0.000000000000D+00 2.000000000000D+00 2.097000000000D+03 0.000000000000D+00
     2.800000000000D+00 0.000000000000D+00-6.053596735001D-09 8.930000000000D+02
     3.132060000000D+05 0.000000000000D+00
J03 2020 03 18 16 00 00-1.219101250172D-06-3.410605131648D-13 0.000000000000D+00
     1.250000000000D+02 4.261250000000D+02 1.189692412607D-09-1.516470954622D+00
     1.468136906624D-05 7.445536402520D-02-6.066635251045D-06 6.493261695862D+03
     3.168000000000D+05 1.545995473862D-06-2.796353664086D+00-1.303851604462D-08
     7.124653890432D-01 3.802187500000D+02-1.569764720853D+00-1.743286900611D-09
     2.653681965077D-10 2.000000000000D+00 2.097000000000D+03 0.000000000000D+00
     2.800000000000D+00 0.000000000000D+00 4.656612873077D-10 8.930000000000D+02
     3.132060000000D+05 0.000000000000D+00
J01 2020 03 18 16 00 00-3.426806069911D-04 8.640199666843D-12 0.000000000000D+00
     1.250000000000D+02-5.377812500000D+02 2.751543184247D-09 2.387661376777D+00
    -1.493468880653D-05 7.483555004001D-02 2.086907625198D-05 6.492776908875D+03
     3.168000000000D+05 2.054497599602D-06-4.899373665779D-01-8.270144462585D-07
     7.256621477469D-01-4.824375000000D+02-1.572924208435D+00-2.487246460942D-09
     9.007518056425D-10 2.000000000000D+00 2.097000000000D+03 0.000000000000D+00
     2.800000000000D+00 0.000000000000D+00-5.122274160385D-09 8.930000000000D+02
     3.132060000000D+05 0.000000000000D+00
J07 2020 03 18 17 00 00 2.607703208923D-08 0.000000000000D+00 0.000000000000D+00
     1.290000000000D+02 4.531562500000D+02 0.000000000000D+00 3.031266958745D+00
     1.478008925915D-05 2.655078424141D-04-2.255663275719D-06 6.493425163269D+03
     3.204000000000D+05 7.338821887970D-07 3.444910346001D-01 1.648440957069D-06
     1.179272892878D-03 5.884375000000D+01-2.927080030964D+00 1.193978305418D-09
     0.000000000000D+00 2.000000000000D+00 2.097000000000D+03 0.000000000000D+00
     2.800000000000D+00 0.000000000000D+00-6.053596735001D-09 8.970000000000D+02
     3.168060000000D+05 0.000000000000D+00
J03 2020 03 18 17 00 00-1.218635588884D-06-3.410605131648D-13 0.000000000000D+00
     1.290000000000D+02 4.377187500000D+02 1.946509651369D-09-1.253984776036D+00
     1.525692641735D-05 7.445502409246D-02-5.032867193222D-06 6.493251981735D+03
     3.204000000000D+05 2.626329660416D-07-2.796361976386D+00 7.580965757370D-07
     7.124596485527D-01 3.400000000000D+02-1.569712667302D+00-2.622609242202D-09
     1.960795960737D-10 2.000000000000D+00 2.097000000000D+03 0.000000000000D+00
     2.800000000000D+00 0.000000000000D+00 4.656612873077D-10 8.970000000000D+02
     3.168060000000D+05 0.000000000000D+00
